COSMOS 2425 (716)       
1 29670U 06062A   19048.93447653  .00000055  00000-0  10000-3 0  9995
2 29670  65.1612 284.2261 0022923 348.2644 334.7741  2.13105874 94543
COSMOS 2426 (717)       
1 29671U 06062B   19048.82618159  .00000055  00000-0  10000-3 0  9995
2 29671  65.1775 284.3337 0016355 161.5948 292.3843  2.13103138 94558
COSMOS 2433 (720)       
1 32275U 07052A   19049.44705388 -.00000006  00000-0  10000-3 0  9996
2 32275  65.8036  45.1089 0005369 270.7389 275.8744  2.13104505 88076
COSMOS 2432 (719)       
1 32276U 07052B   19049.52931884 -.00000007  00000-0  10000-3 0  9999
2 32276  65.8147  45.1866 0012770 322.2531 238.8138  2.13103861 88079
COSMOS 2434 (721)       
1 32393U 07065A   19048.40882822  .00000058  00000-0  00000+0 0  9996
2 32393  64.7754 283.1026 0004285  83.7950 273.8589  2.13102994 86757
COSMOS 2436 (723)       
1 32395U 07065C   19048.79647918  .00000056  00000-0  10000-3 0  9998
2 32395  64.7849 283.1406 0017296   2.6758 344.0674  2.13104359 86694
COSMOS 2456 (730)       
1 36111U 09070A   19049.22927402 -.00000001  00000-0  00000+0 0  9990
2 36111  64.1952 162.6923 0003450 331.0189 108.9179  2.13102840 71449
COSMOS 2457 (733)       
1 36112U 09070B   19048.85751295 -.00000002  00000-0  00000+0 0  9995
2 36112  64.1775 162.6098 0006218 156.2965 124.0866  2.13101508 71431
COSMOS 2458 (734)       
1 36113U 09070C   19048.89979788 -.00000002  00000-0  10000-3 0  9994
2 36113  64.1830 162.6228 0002775  43.1865 309.6323  2.13092001 71432
COSMOS 2459 (731)       
1 36400U 10007A   19049.20868810 -.00000006  00000-0  10000-3 0  9998
2 36400  65.7088  44.1479 0027485 345.3576 235.2866  2.13102259 69795
COSMOS 2461 (735)       
1 36401U 10007B   19049.15968868 -.00000006  00000-0  10000-3 0  9997
2 36401  65.7014  44.1229 0004741  44.4213  49.1681  2.13102170 69792
COSMOS 2460 (732)       
1 36402U 10007C   19048.72779869 -.00000003  00000-0  10000-3 0  9998
2 36402  65.6921  44.1026 0002768 283.8608 238.5660  2.13101603 69788
COSMOS 2464 (736)       
1 37139U 10041C   19049.29432587  .00000054  00000-0  00000+0 0  9990
2 37139  64.3751 282.7550 0026424  14.1601 169.9680  2.13100666 65860
COSMOS 2471 (701K)      
1 37372U 11009A   19048.54211137 -.00000001  00000-0  00000-0 0  9991
2 37372  65.6879  44.0524 0010017 241.2150 288.0446  2.13107629 62054
COSMOS 2474 (742)       
1 37829U 11055A   19049.18800729 -.00000000  00000-0  00000+0 0  9999
2 37829  64.5162 163.5143 0007587 241.7074  23.5495  2.13101864 57433
COSMOS 2476 (744)       
1 37867U 11064A   19049.12003334 -.00000000  00000-0  00000+0 0  9992
2 37867  64.4982 163.5727 0017639 237.8218  21.3906  2.13101939 56780
COSMOS 2477 (745)       
1 37868U 11064B   19049.16221990 -.00000000  00000-0  00000+0 0  9997
2 37868  64.5066 163.6216 0015330 238.7442 231.6027  2.13101738 56747
COSMOS 2475 (743)       
1 37869U 11064C   19049.16196163 -.00000000  00000-0  00000+0 0  9991
2 37869  64.5135 163.6190 0019342 264.8425 162.2876  2.13101925 56754
COSMOS 2485 (747)       
1 39155U 13019A   19049.61943662  .00000001  00000-0  00000+0 0  9997
2 39155  64.6666 163.7216 0018589 233.9042  93.2235  2.13101843 45263
COSMOS 2492 (754)       
1 39620U 14012A   19048.84061456 -.00000004  00000-0  10000-3 0  9993
2 39620  65.5813  43.9495 0016194 320.6779 163.9780  2.13103425 38207
COSMOS 2500 (755)       
1 40001U 14032A   19048.66767800 -.00000003  00000-0  00000-0 0  9991
2 40001  65.5239  43.9067 0007287 229.0988 344.5624  2.13102737 36416
COSMOS 2501 (702K)      
1 40315U 14075A   19049.33641078  .00000051  00000-0  00000+0 0  9990
2 40315  64.0984 283.8761 0014694 207.3368 318.4453  2.13098560 32832
COSMOS 2514 (751)       
1 41330U 16008A   19048.46603591 -.00000002  00000-0  00000-0 0  9995
2 41330  65.3250  43.9055 0011001 230.0965  10.3129  2.13103173 23572
COSMOS 2516 (753)       
1 41554U 16032A   19049.51201774  .00000050  00000-0  00000+0 0  9995
2 41554  64.3223 283.8043 0010481 219.6219 353.9181  2.13101654 21201
COSMOS 2522 (752)       
1 42939U 17055A   19049.17133512  .00000053  00000-0  00000+0 0  9998
2 42939  64.5525 283.8539 0006148 257.6512 281.0107  2.13102068 10958
